OBJECT_NAME,OBJECT_ID,EPOCH,MEAN_MOTION,ECCENTRICITY,INCLINATION,RA_OF_ASC_NODE,ARG_OF_PERICENTER,MEAN_ANOMALY,EPHEMERIS_TYPE,CLASSIFICATION_TYPE,NORAD_CAT_ID,ELEMENT_SET_NO,REV_AT_EPOCH,BSTAR,MEAN_MOTION_DOT,MEAN_MOTION_DDOT
FLOCK 4H-23,2025-276BN,2026-06-08T03:23:33.662976,15.19650316,0.00052163,97.4239,232.8768,44.9117,315.2539,0,U,66726,999,2904,0.00028432197,5.9970000000000004e-05,0.0
FLOCK 4H-24,2025-276BP,2026-06-08T04:40:05.766816,15.19751185,0.0005108900000000001,97.4234,232.9543,59.0224,301.1513,0,U,66727,999,2905,0.00025187706,5.3200000000000006e-05,0.0
FLOCK 4H-25,2025-276BQ,2026-06-08T03:34:43.626720,15.20558089,0.00010779999999999999,97.4192,233.0546,80.7415,279.3942,0,U,66728,999,2834,0.00025142466,5.436e-05,0.0
FLOCK 4H-26,2025-276BR,2026-06-08T03:44:01.821696,15.19490688,0.00058425,97.419,232.7352,55.076,305.1023,0,U,66729,999,2904,0.00028293133,5.940000000000001e-05,0.0
FLOCK 4H-27,2025-276BS,2026-06-08T04:12:08.671968,15.20353547,0.0001507,97.4166,232.9562,74.1795,285.9607,0,U,66730,999,2906,0.00024795058,5.3280000000000005e-05,0.0
FLOCK 4H-28,2025-276BT,2026-06-08T03:39:39.413664,15.19546276,0.00055168,97.4177,232.7089,57.7548,302.4221,0,U,66731,999,2904,0.00028121877,5.9130000000000005e-05,0.0
FLOCK 4H-29,2025-276BU,2026-06-08T04:54:08.127072,15.19626985,0.00045997000000000003,97.4167,232.7682,69.276,290.8967,0,U,66732,999,2905,0.00027445013999999996,5.7820000000000005e-05,0.0
FLOCK 4H-30,2025-276BV,2026-06-08T04:46:44.415552,15.19743063,0.00053274,97.423,232.9338,57.4734,302.7015,0,U,66733,999,2905,0.00025984552999999997,5.4890000000000005e-05,0.0
FLOCK 4H-31,2025-276BW,2026-06-07T18:05:32.640000,15.19528982,0.00050224,97.4167,232.299,65.1825,294.9932,0,U,66734,999,2898,0.00032750480999999996,6.894e-05,0.0
FLOCK 4H-32,2025-276BX,2026-06-08T04:56:04.843968,15.19650407,0.00056484,97.4223,232.9052,53.8618,306.3139,0,U,66735,999,2905,0.00028002300999999997,5.9050000000000006e-05,0.0
FLOCK 4H-33,2025-276BY,2026-06-08T04:35:47.903424,15.20814192,0.00016549999999999998,97.4219,233.2226,11.7898,348.3376,0,U,66736,999,2907,0.00021572901999999998,4.689000000000001e-05,0.0
FLOCK 4H-34,2025-276BZ,2026-06-08T04:03:42.413760,15.2038367,0.00020784000000000002,97.4234,233.1368,17.6615,342.4692,0,U,66737,999,2831,0.00026412193,5.6850000000000006e-05,0.0
FLOCK 4H-35,2025-276CA,2026-06-08T03:33:17.183520,15.20551566,0.00012794,97.4194,233.0667,16.8134,343.3143,0,U,66738,999,2835,0.00023387315,5.05e-05,0.0
FLOCK 4H-36,2025-276CB,2026-06-08T04:20:49.479936,15.20321011,0.00025317,97.4241,233.143,25.4869,334.6491,0,U,66739,999,2906,0.00024302493999999998,5.215e-05,0.0
NUSAT-51 (YVONNE BRILL),2025-276CC,2026-06-08T04:57:53.813376,15.20160036,0.00039499,97.4206,233.0179,49.9581,310.2,0,U,66740,999,2906,0.00027890213999999996,5.9680000000000005e-05,0.0
BLACK KITE-1,2025-276CD,2026-06-07T23:09:13.109184,15.20441371,0.00061392,97.4242,232.8277,36.959,323.2067,0,U,66741,999,2632,0.00041567551,9.008e-05,0.0
MERCURY ONE (M1),2025-276CE,2026-06-08T04:14:21.634656,15.19550225,0.00027513,97.419,232.8714,39.656,320.4876,0,U,66742,999,2905,0.0001956565,4.092e-05,0.0
NUSAT-47,2025-276CF,2026-06-08T03:31:36.423840,15.20195415,0.00028629999999999997,97.4188,232.9047,64.4349,295.7181,0,U,66743,999,2905,0.00027523932,5.895e-05,0.0
AC1-001,2025-276CG,2026-06-08T03:26:37.482432,15.18308019,0.00040058,97.4203,232.6456,55.3096,304.8515,0,U,66744,999,2903,0.00012255880000000002,2.447e-05,0.0
AC1-002,2025-276CH,2026-06-08T04:46:21.087552,15.18396908,0.00031395,97.4194,232.7016,51.5625,308.5891,0,U,66745,999,2904,0.00011342806999999999,2.265e-05,0.0
UMBRA-11,2025-276CL,2026-06-08T05:03:40.438944,15.26352251,0.00017705,97.4198,233.8996,40.8089,319.3281,0,U,66748,999,2912,0.00071223852,0.00018464,0.0
PIAST-S1,2025-276CM,2026-06-08T04:39:40.687488,15.20175802,0.00026483,97.4191,232.9944,36.8908,323.2509,0,U,66749,999,2906,0.00023525467999999997,5.025000000000001e-05,0.0
TRANSPORTER-15 OBJECT CN,2025-276CN,2026-06-08T03:22:03.913248,15.19783339,0.00016862,97.4228,233.0127,25.5759,334.5559,0,U,66750,999,2905,0.00019987002999999998,4.21e-05,0.0
ICEYE-X58,2025-276CP,2026-06-08T03:43:56.009568,15.17836545,0.00037692,97.4205,232.7792,35.0043,325.1438,0,U,66751,999,2904,0.00016338547,3.24e-05,0.0
ICEYE-X59,2025-276CQ,2026-06-08T03:39:26.354304,15.01430408,0.00015309,97.4289,230.8339,94.6097,265.5303,0,U,66752,999,2891,0.00018084836999999999,2.2780000000000002e-05,0.0
ICEYE-X60,2025-276CR,2026-06-08T04:28:15.710880,15.10717909,0.00034398,97.4213,232.1191,64.6649,295.4937,0,U,66753,999,2900,0.00046599791999999996,7.664e-05,0.0
ICEYE-X61,2025-276CS,2026-06-08T04:44:47.777280,15.18355937,0.00037282,97.4198,232.8571,37.328,322.8213,0,U,66754,999,2905,0.00016058592999999998,3.232e-05,0.0
ICEYE-X62,2025-276CT,2026-06-08T04:24:24.723936,15.09992311,0.00035145,97.4197,231.6741,58.9917,301.1657,0,U,66755,999,2897,0.00011549354,1.8140000000000003e-05,0.0
MAUVE,2025-276CU,2026-06-08T04:14:05.198784,15.20530476,0.00018008,97.4202,233.0537,40.2665,319.8704,0,U,66756,999,2906,0.00025877402999999996,5.592e-05,0.0
PIAST-S2,2025-276CV,2026-06-08T04:00:24.389280,15.2040918,0.00017121,97.4212,233.0897,40.6336,319.5026,0,U,66757,999,2906,0.00024906155,5.360000000000001e-05,0.0
PIAST-M,2025-276CW,2026-06-08T04:21:30.806784,15.20173659,0.00016481000000000002,97.4182,232.9962,58.7311,301.4085,0,U,66758,999,2906,0.00020940508,4.465e-05,0.0
TRANSPORTER-15 OBJECT CX,2025-276CX,2026-06-08T03:10:24.689280,15.20844394,0.00014121,97.4168,233.0237,39.0673,321.0664,0,U,66759,999,2906,0.00033279665999999997,7.279e-05,0.0
TRANSPORTER-15 OBJECT CY,2025-276CY,2026-06-08T04:07:14.867040,15.201910699999999,0.00011956,97.4186,233.0178,75.6101,284.5266,0,U,66760,999,2906,0.00020232931999999998,4.3140000000000004e-05,0.0
TRANSPORTER-15 OBJECT CZ,2025-276CZ,2026-06-08T04:03:18.016992,15.22159208,8.666000000000001e-05,97.4182,233.3191,78.946,281.1873,0,U,66761,999,2908,0.00034591489,7.868000000000001e-05,0.0
HYDROGNSS-1,2025-276DA,2026-06-08T04:44:09.801888,15.1141895,0.00126149,97.4201,231.9599,83.7933,276.4734,0,U,66762,999,2899,0.00018118875,3.0030000000000002e-05,0.0
HYDROGNSS-2,2025-276DB,2026-06-08T03:58:00.700896,15.11567081,0.00125533,97.42,231.8602,35.2002,325.0055,0,U,66763,999,2898,0.00017629653,2.932e-05,0.0
NAHLA,2025-276DC,2026-06-08T03:39:49.523328,15.18846969,0.00032687,97.4201,232.7647,35.6258,324.5194,0,U,66764,999,2904,0.00014066008,2.8630000000000002e-05,0.0
TRANSPORTER-15 OBJECT DD,2025-276DD,2026-06-08T03:13:28.463808,15.23526895,0.00010479,97.4214,233.5777,111.008,249.1269,0,U,66765,999,2909,0.0007012640299999999,0.00016701000000000002,0.0
T.MICROSAT-1,2025-276DE,2026-06-08T04:38:27.694176,15.20718386,0.0001496,97.4159,233.0624,121.804,238.3342,0,U,66766,999,2907,0.00023287908,5.0530000000000006e-05,0.0
ACCENTURE-1,2025-276DF,2026-06-08T04:18:49.148928,15.19912334,0.00014579,97.4158,232.9388,120.3944,239.7435,0,U,66767,999,2906,0.00017504421,3.6920000000000006e-05,0.0
LEMUR-2-TEODOR,2025-276DG,2026-06-08T04:02:19.901760,15.20951389,0.00018309999999999998,97.4147,233.0751,123.5597,236.5814,0,U,66768,999,2907,0.00024487719,5.3540000000000006e-05,0.0
SPEQTRE,2025-276DH,2026-06-08T03:26:44.523168,15.20414809,5.153e-05,97.4204,233.1019,134.765,225.3627,0,U,66769,999,2906,0.00021307949,4.5770000000000004e-05,0.0
LILIUM-3,2025-276DJ,2026-06-08T04:51:51.257376,15.194651,4.8150000000000005e-05,97.4243,233.1098,325.0513,35.0691,0,U,66770,999,2906,0.00011523971,2.376e-05,0.0
GYEONGGISAT-1,2025-276DK,2026-06-08T04:42:56.766240,15.20638146,2.1210000000000002e-05,97.4233,233.2502,177.1712,182.9525,0,U,66771,999,2907,0.00024101606,5.22e-05,0.0
IHI-SAT2,2025-276DL,2026-06-08T04:53:13.677792,15.21323749,8.996000000000001e-05,97.423,233.3803,163.94,196.1865,0,U,66772,999,2908,0.00026396956999999997,5.84e-05,0.0
TRANSPORTER-15 OBJECT DM,2025-276DM,2026-06-08T04:48:23.928480,15.20447849,7.536e-05,97.4218,233.2116,170.3472,189.7778,0,U,66773,999,2907,0.00019716156,4.233e-05,0.0
GENA-OT,2025-276DN,2026-06-08T03:56:41.515296,15.21010226,8.429000000000001e-05,97.4199,233.2227,162.1722,197.9543,0,U,66774,999,2907,0.00025017613,5.4810000000000005e-05,0.0
PHI 1,2025-276DP,2026-06-08T03:37:57.100512,15.21197706,0.00022723,97.4128,233.0541,141.898,218.2417,0,U,66775,999,2907,0.0002758477,6.084e-05,0.0
LEMUR-2-LAILA,2025-276DQ,2026-06-08T03:26:39.188832,15.21171904,0.00016213,97.4172,233.1656,147.0958,213.0379,0,U,66776,999,2907,0.00025886516999999997,5.701000000000001e-05,0.0
LUNA-1,2025-276DR,2026-06-08T04:27:09.880992,15.22585275,9.962000000000001e-05,97.4252,233.626,204.4564,155.6626,0,U,66777,999,2909,0.00034485323,7.943e-05,0.0
FORESAIL-1 PRIME,2025-276DS,2026-06-08T04:01:00.773184,15.18619338,0.00037138,97.4199,232.6039,122.1307,238.0288,0,U,66778,999,2903,0.00021751492999999998,4.435e-05,0.0
FOSSASAT-2E22,2025-276DU,2026-06-08T03:58:54.544512,15.18348119,0.00061257,97.4178,232.542,154.9642,205.189,0,U,66779,999,2903,0.00012461801999999998,2.493e-05,0.0
FOSSASAT-2E24,2025-276DV,2026-06-08T04:26:54.341088,15.18826585,0.00054141,97.4173,232.6596,146.5095,213.6482,0,U,66780,999,2904,0.00015957835,3.256000000000001e-05,0.0
LEMUR-2-CELIJO-SB-PK,2025-276DW,2026-06-08T03:55:59.746080,14.99864743,0.00088248,97.5276,230.2367,153.9585,206.2085,0,U,66781,999,2127,0.00043142212999999996,5.294e-05,0.0
LEMUR-2-FINNIAN,2025-276DX,2026-06-08T03:26:18.116736,15.00262468,0.00085382,97.5256,230.4243,116.1119,244.0985,0,U,66782,999,1864,0.00047697642999999996,5.921000000000001e-05,0.0
LEMUR-2-STARLIGHT,2025-276DY,2026-06-08T03:48:02.107872,14.98948334,0.00153528,97.5274,230.1048,153.7795,206.4209,0,U,66783,999,2884,0.00045215687999999995,5.428e-05,0.0
LEMUR-2-TARTIFLETTE,2025-276DZ,2026-06-08T03:46:05.295072,14.98972295,0.00139387,97.5276,230.1089,159.9634,200.2139,0,U,66784,999,2884,0.00051669432,6.213e-05,0.0
LEMUR-2-VUKASIN,2025-276EA,2026-06-08T03:48:10.329696,15.00266763,0.0006275300000000001,97.5306,230.3853,145.5098,214.6534,0,U,66785,999,2879,0.00044560095,5.526e-05,0.0
